{
  "norad_id": 67377,
  "name": "AETHER-6",
  "history": [
    {
      "epoch": "2026-03-28T22:30:22.913280",
      "apogee_km": 607.9882635192353,
      "perigee_km": 599.8095066834267,
      "latitude_deg": -6.182938208170799,
      "longitude_deg": -72.27454080013558,
      "semi_major_axis_km": 6982.035885101331,
      "eccentricity": 0.0005857,
      "inclination_deg": 97.8033,
      "raan_deg": 87.8729,
      "arg_perigee_deg": 41.6201,
      "mean_anomaly_deg": 318.546,
      "mean_motion_rev_day": 14.88091538
    }
  ]
}